QIANFAN-81              
1 63167U 25046J   25356.85785973  .00000165  00000+0  23590-3 0  9996
2 63167  88.9772 318.8248 0016678  89.9910 270.3153 13.51005451 48855
QIANFAN-82              
1 63168U 25046K   25356.81804716  .00000149  00000+0  21150-3 0  9992
2 63168  88.9772 318.8729 0014751  96.7670 263.5161 13.50978489 48839
QIANFAN-83              
1 63169U 25046L   25356.83732558  .00000178  00000+0  21536-3 0  9999
2 63169  88.9773 318.6274 0016185  83.6133 276.6866 13.61977680 48972
QIANFAN-84              
1 63170U 25046M   25356.84577175  .00000126  00000+0  17638-3 0  9995
2 63170  88.9771 319.0026 0017748  94.0342 266.2838 13.50988947 48763
QIANFAN-85              
1 63171U 25046N   25356.84260461  .00000161  00000+0  23032-3 0  9997
2 63171  88.9771 318.8746 0015109  95.6998 264.5877 13.50979406 48835
QIANFAN-86              
1 63172U 25046P   25356.85093398  .00000168  00000+0  24061-3 0  9992
2 63172  88.9774 318.7361 0012948  98.9379 261.3238 13.50979114 48919
QIANFAN-87              
1 63173U 25046Q   25356.82227944  .00000149  00000+0  21163-3 0  9995
2 63173  88.9770 318.8504 0013649  95.1444 265.1266 13.50976713 48844
QIANFAN-88              
1 63174U 25046R   25356.83856152  .00000140  00000+0  19779-3 0  9997
2 63174  88.9772 318.8035 0013952 102.0916 258.1799 13.50983326 48879
